IRIDIUM 33 DEB          
1 34487U 97051GC  26095.08553046  .00000779  00000+0  22337-3 0  9993
2 34487  86.3434 323.6018 0032781 113.9744  39.0611 14.43415541898837
IRIDIUM 33 DEB          
1 34492U 97051GH  26095.30742077  .00009722  00000+0  32674-2 0  9999
2 34492  86.4691 288.6306 0180852 232.2608 251.6029 14.28230060866784
IRIDIUM 33 DEB          
1 34497U 97051GN  26095.21184769  .00002655  00000+0  10306-2 0  9998
2 34497  86.2833   3.9178 0079020 334.3973 177.9626 14.27907938885028
IRIDIUM 33 DEB          
1 34508U 97051GZ  26094.89369513  .00004607  00000+0  14420-2 0  9996
2 34508  86.3702  54.6010 0064240 159.3875 200.9938 14.39314977889361
IRIDIUM 33 DEB          
1 34521U 97051HN  26095.16348110  .00008072  00000+0  15005-2 0  9992
2 34521  86.3810 340.5651 0001040 210.4471 149.6682 14.65057713901321
IRIDIUM 33 DEB          
1 34525U 97051HS  26095.22135192  .00001635  00000+0  48033-3 0  9993
2 34525  86.3779 358.4071 0006720  78.0050  83.4267 14.43247008897247
IRIDIUM 33 DEB          
1 34529U 97051HW  26094.70373426  .00000912  00000+0  27896-3 0  9994
2 34529  86.3681 347.2732 0004805 165.4691 194.6648 14.40775484897684
IRIDIUM 33 DEB          
1 34538U 97051JF  26095.06471664  .00002936  00000+0  85861-3 0  9991
2 34538  86.2745 315.9107 0033027 313.3839 200.0685 14.43415064893900
IRIDIUM 33 DEB          
1 34540U 97051JH  26094.91401728  .00014319  00000+0  19721-2 0  9990
2 34540  86.3071 255.7318 0017241 134.0040  23.7809 14.78056820906916
IRIDIUM 33 DEB          
1 34648U 97051JZ  26094.37292293  .00011747  00000+0  53729-2 0  9992
2 34648  86.3926 236.3845 0172822 301.8685  56.5780 14.13774585865516
IRIDIUM 33 DEB          
1 34651U 97051KC  26093.25836457  .00009582  00000+0  35340-2 0  9991
2 34651  86.2769  93.0236 0133077 203.3770 156.1338 14.27607710874860
IRIDIUM 33 DEB          
1 34652U 97051KD  26093.00563707  .00006802  00000+0  13122-2 0  9996
2 34652  86.3254 290.4217 0025549 276.8921 215.0908 14.63163610901102
IRIDIUM 33 DEB          
1 34690U 97051KM  26095.17569073  .00002691  00000+0  61245-3 0  9992
2 34690  86.3806 347.6867 0010337   5.0002 148.0419 14.55578758897441
IRIDIUM 33 DEB          
1 34696U 97051KT  26094.91383632  .00031395  00000+0  46068-2 0  9992
2 34696  86.1824 334.4856 0059580 135.0631 237.2837 14.74166059883350
IRIDIUM 33 DEB          
1 34765U 97051LJ  26094.71162986  .00001738  00000+0  53616-3 0  9990
2 34765  86.3427 344.2943 0015071 199.6669 226.4464 14.40825605892402
IRIDIUM 33 DEB          
1 34833U 97051MH  26095.21000428  .00004330  00000+0  10361-2 0  9994
2 34833  86.3983   2.0690 0021893  76.4702  75.4333 14.53238475893621
