[{"OBJECT_NAME":"IRIDIUM 33 DEB","OBJECT_ID":"1997-051GC","EPOCH":"2026-04-05T02:03:09.831744","MEAN_MOTION":14.43415541,"ECCENTRICITY":0.00327817,"INCLINATION":86.3434,"RA_OF_ASC_NODE":323.6018,"ARG_OF_PERICENTER":113.9744,"MEAN_ANOMALY":39.0611,"EPHEMERIS_TYPE":0,"CLASSIFICATION_TYPE":"U","NORAD_CAT_ID":34487,"ELEMENT_SET_NO":999,"REV_AT_EPOCH":89883,"BSTAR":0.00022336611,"MEAN_MOTION_DOT":7.79e-6,"MEAN_MOTION_DDOT":0},{"OBJECT_NAME":"IRIDIUM 33 DEB","OBJECT_ID":"1997-051GH","EPOCH":"2026-04-05T07:22:41.154528","MEAN_MOTION":14.2823006,"ECCENTRICITY":0.01808529,"INCLINATION":86.4691,"RA_OF_ASC_NODE":288.6306,"ARG_OF_PERICENTER":232.2608,"MEAN_ANOMALY":251.6029,"EPHEMERIS_TYPE":0,"CLASSIFICATION_TYPE":"U","NORAD_CAT_ID":34492,"ELEMENT_SET_NO":999,"REV_AT_EPOCH":86678,"BSTAR":0.0032673651,"MEAN_MOTION_DOT":9.722e-5,"MEAN_MOTION_DDOT":0},{"OBJECT_NAME":"IRIDIUM 33 DEB","OBJECT_ID":"1997-051GN","EPOCH":"2026-04-05T05:05:03.640416","MEAN_MOTION":14.27907938,"ECCENTRICITY":0.007902,"INCLINATION":86.2833,"RA_OF_ASC_NODE":3.9178,"ARG_OF_PERICENTER":334.3973,"MEAN_ANOMALY":177.9626,"EPHEMERIS_TYPE":0,"CLASSIFICATION_TYPE":"U","NORAD_CAT_ID":34497,"ELEMENT_SET_NO":999,"REV_AT_EPOCH":88502,"BSTAR":0.0010305719,"MEAN_MOTION_DOT":2.655e-5,"MEAN_MOTION_DDOT":0},{"OBJECT_NAME":"IRIDIUM 33 DEB","OBJECT_ID":"1997-051GZ","EPOCH":"2026-04-04T21:26:55.259232","MEAN_MOTION":14.39314977,"ECCENTRICITY":0.00642401,"INCLINATION":86.3702,"RA_OF_ASC_NODE":54.601,"ARG_OF_PERICENTER":159.3875,"MEAN_ANOMALY":200.9938,"EPHEMERIS_TYPE":0,"CLASSIFICATION_TYPE":"U","NORAD_CAT_ID":34508,"ELEMENT_SET_NO":999,"REV_AT_EPOCH":88936,"BSTAR":0.0014419878,"MEAN_MOTION_DOT":4.607e-5,"MEAN_MOTION_DDOT":0},{"OBJECT_NAME":"IRIDIUM 33 DEB","OBJECT_ID":"1997-051HN","EPOCH":"2026-04-05T03:55:24.767040","MEAN_MOTION":14.65057713,"ECCENTRICITY":0.00010403,"INCLINATION":86.381,"RA_OF_ASC_NODE":340.5651,"ARG_OF_PERICENTER":210.4471,"MEAN_ANOMALY":149.6682,"EPHEMERIS_TYPE":0,"CLASSIFICATION_TYPE":"U","NORAD_CAT_ID":34521,"ELEMENT_SET_NO":999,"REV_AT_EPOCH":90132,"BSTAR":0.001500511,"MEAN_MOTION_DOT":8.072e-5,"MEAN_MOTION_DDOT":0},{"OBJECT_NAME":"IRIDIUM 33 DEB","OBJECT_ID":"1997-051HS","EPOCH":"2026-04-05T05:18:44.805888","MEAN_MOTION":14.43247008,"ECCENTRICITY":0.00067203,"INCLINATION":86.3779,"RA_OF_ASC_NODE":358.4071,"ARG_OF_PERICENTER":78.005,"MEAN_ANOMALY":83.4267,"EPHEMERIS_TYPE":0,"CLASSIFICATION_TYPE":"U","NORAD_CAT_ID":34525,"ELEMENT_SET_NO":999,"REV_AT_EPOCH":89724,"BSTAR":0.00048033374,"MEAN_MOTION_DOT":1.635e-5,"MEAN_MOTION_DDOT":0},{"OBJECT_NAME":"IRIDIUM 33 DEB","OBJECT_ID":"1997-051HW","EPOCH":"2026-04-04T16:53:22.640064","MEAN_MOTION":14.40775484,"ECCENTRICITY":0.00048052,"INCLINATION":86.3681,"RA_OF_ASC_NODE":347.2732,"ARG_OF_PERICENTER":165.4691,"MEAN_ANOMALY":194.6648,"EPHEMERIS_TYPE":0,"CLASSIFICATION_TYPE":"U","NORAD_CAT_ID":34529,"ELEMENT_SET_NO":999,"REV_AT_EPOCH":89768,"BSTAR":0.00027895814,"MEAN_MOTION_DOT":9.12e-6,"MEAN_MOTION_DDOT":0},{"OBJECT_NAME":"IRIDIUM 33 DEB","OBJECT_ID":"1997-051JF","EPOCH":"2026-04-05T01:33:11.517696","MEAN_MOTION":14.43415064,"ECCENTRICITY":0.00330275,"INCLINATION":86.2745,"RA_OF_ASC_NODE":315.9107,"ARG_OF_PERICENTER":313.3839,"MEAN_ANOMALY":200.0685,"EPHEMERIS_TYPE":0,"CLASSIFICATION_TYPE":"U","NORAD_CAT_ID":34538,"ELEMENT_SET_NO":999,"REV_AT_EPOCH":89390,"BSTAR":0.00085861449,"MEAN_MOTION_DOT":2.936e-5,"MEAN_MOTION_DDOT":0},{"OBJECT_NAME":"IRIDIUM 33 DEB","OBJECT_ID":"1997-051JH","EPOCH":"2026-04-04T21:56:11.092992","MEAN_MOTION":14.7805682,"ECCENTRICITY":0.00172414,"INCLINATION":86.3071,"RA_OF_ASC_NODE":255.7318,"ARG_OF_PERICENTER":134.004,"MEAN_ANOMALY":23.7809,"EPHEMERIS_TYPE":0,"CLASSIFICATION_TYPE":"U","NORAD_CAT_ID":34540,"ELEMENT_SET_NO":999,"REV_AT_EPOCH":90691,"BSTAR":0.0019721332,"MEAN_MOTION_DOT":0.00014319,"MEAN_MOTION_DDOT":0},{"OBJECT_NAME":"IRIDIUM 33 DEB","OBJECT_ID":"1997-051JZ","EPOCH":"2026-04-04T08:57:00.541152","MEAN_MOTION":14.13774585,"ECCENTRICITY":0.01728222,"INCLINATION":86.3926,"RA_OF_ASC_NODE":236.3845,"ARG_OF_PERICENTER":301.8685,"MEAN_ANOMALY":56.578,"EPHEMERIS_TYPE":0,"CLASSIFICATION_TYPE":"U","NORAD_CAT_ID":34648,"ELEMENT_SET_NO":999,"REV_AT_EPOCH":86551,"BSTAR":0.0053729294,"MEAN_MOTION_DOT":0.00011747,"MEAN_MOTION_DDOT":0},{"OBJECT_NAME":"IRIDIUM 33 DEB","OBJECT_ID":"1997-051KC","EPOCH":"2026-04-03T06:12:02.698848","MEAN_MOTION":14.2760771,"ECCENTRICITY":0.0133077,"INCLINATION":86.2769,"RA_OF_ASC_NODE":93.0236,"ARG_OF_PERICENTER":203.377,"MEAN_ANOMALY":156.1338,"EPHEMERIS_TYPE":0,"CLASSIFICATION_TYPE":"U","NORAD_CAT_ID":34651,"ELEMENT_SET_NO":999,"REV_AT_EPOCH":87486,"BSTAR":0.003534,"MEAN_MOTION_DOT":9.582e-5,"MEAN_MOTION_DDOT":0},{"OBJECT_NAME":"IRIDIUM 33 DEB","OBJECT_ID":"1997-051KD","EPOCH":"2026-04-03T00:08:07.042848","MEAN_MOTION":14.6316361,"ECCENTRICITY":0.00255498,"INCLINATION":86.3254,"RA_OF_ASC_NODE":290.4217,"ARG_OF_PERICENTER":276.8921,"MEAN_ANOMALY":215.0908,"EPHEMERIS_TYPE":0,"CLASSIFICATION_TYPE":"U","NORAD_CAT_ID":34652,"ELEMENT_SET_NO":999,"REV_AT_EPOCH":90110,"BSTAR":0.0013121819,"MEAN_MOTION_DOT":6.802e-5,"MEAN_MOTION_DDOT":0},{"OBJECT_NAME":"IRIDIUM 33 DEB","OBJECT_ID":"1997-051KM","EPOCH":"2026-04-05T04:12:59.679072","MEAN_MOTION":14.55578758,"ECCENTRICITY":0.00103375,"INCLINATION":86.3806,"RA_OF_ASC_NODE":347.6867,"ARG_OF_PERICENTER":5.0002,"MEAN_ANOMALY":148.0419,"EPHEMERIS_TYPE":0,"CLASSIFICATION_TYPE":"U","NORAD_CAT_ID":34690,"ELEMENT_SET_NO":999,"REV_AT_EPOCH":89744,"BSTAR":0.00061245397,"MEAN_MOTION_DOT":2.691e-5,"MEAN_MOTION_DDOT":0},{"OBJECT_NAME":"IRIDIUM 33 DEB","OBJECT_ID":"1997-051KT","EPOCH":"2026-04-04T21:55:55.458048","MEAN_MOTION":14.74166059,"ECCENTRICITY":0.00595804,"INCLINATION":86.1824,"RA_OF_ASC_NODE":334.4856,"ARG_OF_PERICENTER":135.0631,"MEAN_ANOMALY":237.2837,"EPHEMERIS_TYPE":0,"CLASSIFICATION_TYPE":"U","NORAD_CAT_ID":34696,"ELEMENT_SET_NO":999,"REV_AT_EPOCH":88335,"BSTAR":0.0046067792,"MEAN_MOTION_DOT":0.00031395,"MEAN_MOTION_DDOT":0},{"OBJECT_NAME":"IRIDIUM 33 DEB","OBJECT_ID":"1997-051LJ","EPOCH":"2026-04-04T17:04:44.819904","MEAN_MOTION":14.40825605,"ECCENTRICITY":0.00150715,"INCLINATION":86.3427,"RA_OF_ASC_NODE":344.2943,"ARG_OF_PERICENTER":199.6669,"MEAN_ANOMALY":226.4464,"EPHEMERIS_TYPE":0,"CLASSIFICATION_TYPE":"U","NORAD_CAT_ID":34765,"ELEMENT_SET_NO":999,"REV_AT_EPOCH":89240,"BSTAR":0.00053616147,"MEAN_MOTION_DOT":1.738e-5,"MEAN_MOTION_DDOT":0},{"OBJECT_NAME":"IRIDIUM 33 DEB","OBJECT_ID":"1997-051MH","EPOCH":"2026-04-05T05:02:24.369792","MEAN_MOTION":14.53238475,"ECCENTRICITY":0.0021893,"INCLINATION":86.3983,"RA_OF_ASC_NODE":2.069,"ARG_OF_PERICENTER":76.4702,"MEAN_ANOMALY":75.4333,"EPHEMERIS_TYPE":0,"CLASSIFICATION_TYPE":"U","NORAD_CAT_ID":34833,"ELEMENT_SET_NO":999,"REV_AT_EPOCH":89362,"BSTAR":0.0010361378,"MEAN_MOTION_DOT":4.33e-5,"MEAN_MOTION_DDOT":0}]
